{
  "type": "FeatureCollection",
  "features": [
    {
      "type": "Feature",
      "properties": {
        "norad_id": 2807,
        "name": "OPS 7218 (TRANSIT 16)",
        "group": "nnss",
        "lat": 13.730514333713328,
        "lon": -6.260219417792815,
        "alt_km": 1065.3397195601037,
        "timestamp": "2025-12-23T11:34:48.432827+00:00",
        "meta_object_name": "OPS 7218 (TRANSIT 16)",
        "meta_object_id": "1967-048A",
        "meta_epoch": "2025-12-23T01:08:49.545888",
        "meta_mean_motion": 13.50724389,
        "meta_eccentricity": 0.0022161,
        "meta_inclination": 89.6731,
        "meta_ra_of_asc_node": 353.6742,
        "meta_arg_of_pericenter": 86.6117,
        "meta_mean_anomaly": 334.9058,
        "meta_ephemeris_type": 0,
        "meta_classification_type": "U",
        "meta_norad_cat_id": 2807,
        "meta_element_set_no": 999,
        "meta_rev_at_epoch": 88415,
        "meta_bstar": 0.00014649,
        "meta_mean_motion_dot": 1.05e-06,
        "meta_mean_motion_ddot": 0,
        "tle_line1": "1 02807U 67048A   25357.04779567  .00000105  00000+0  14649-3 0  9991",
        "tle_line2": "2 02807  89.6731 353.6742 0022161  86.6117 334.9058 13.50724389884154"
      },
      "geometry": {
        "type": "Point",
        "coordinates": [
          -6.260219417792815,
          13.730514333713328
        ]
      }
    },
    {
      "type": "Feature",
      "properties": {
        "norad_id": 2965,
        "name": "OPS 4947 (TRANSIT 17)",
        "group": "nnss",
        "lat": -4.025689227901269,
        "lon": -156.33111708363745,
        "alt_km": 1029.9361853517112,
        "timestamp": "2025-12-23T11:34:48.432849+00:00",
        "meta_object_name": "OPS 4947 (TRANSIT 17)",
        "meta_object_id": "1967-092A",
        "meta_epoch": "2025-12-23T01:55:51.648096",
        "meta_mean_motion": 13.53456258,
        "meta_eccentricity": 0.004695,
        "meta_inclination": 89.2486,
        "meta_ra_of_asc_node": 23.6466,
        "meta_arg_of_pericenter": 203.7716,
        "meta_mean_anomaly": 182.5317,
        "meta_ephemeris_type": 0,
        "meta_classification_type": "U",
        "meta_norad_cat_id": 2965,
        "meta_element_set_no": 999,
        "meta_rev_at_epoch": 87237,
        "meta_bstar": 0.00019192,
        "meta_mean_motion_dot": 1.41e-06,
        "meta_mean_motion_ddot": 0,
        "tle_line1": "1 02965U 67092A   25357.08045889  .00000141  00000+0  19192-3 0  9990",
        "tle_line2": "2 02965  89.2486  23.6466 0046950 203.7716 182.5317 13.53456258872374"
      },
      "geometry": {
        "type": "Point",
        "coordinates": [
          -156.33111708363745,
          -4.025689227901269
        ]
      }
    },
    {
      "type": "Feature",
      "properties": {
        "norad_id": 3133,
        "name": "OPS 7034 (TRANSIT 18)",
        "group": "nnss",
        "lat": -81.06800063002582,
        "lon": 93.48807044277792,
        "alt_km": 1103.8666849221945,
        "timestamp": "2025-12-23T11:34:48.432860+00:00",
        "meta_object_name": "OPS 7034 (TRANSIT 18)",
        "meta_object_id": "1968-012A",
        "meta_epoch": "2025-12-23T01:28:14.489184",
        "meta_mean_motion": 13.51568073,
        "meta_eccentricity": 0.0074819,
        "meta_inclination": 90.0285,
        "meta_ra_of_asc_node": 273.6683,
        "meta_arg_of_pericenter": 139.4434,
        "meta_mean_anomaly": 232.5661,
        "meta_ephemeris_type": 0,
        "meta_classification_type": "U",
        "meta_norad_cat_id": 3133,
        "meta_element_set_no": 999,
        "meta_rev_at_epoch": 57058,
        "meta_bstar": 0.00021252,
        "meta_mean_motion_dot": 1.51e-06,
        "meta_mean_motion_ddot": 0,
        "tle_line1": "1 03133U 68012A   25357.06127881  .00000151  00000+0  21252-3 0  9993",
        "tle_line2": "2 03133  90.0285 273.6683 0074819 139.4434 232.5661 13.51568073570587"
      },
      "geometry": {
        "type": "Point",
        "coordinates": [
          93.48807044277792,
          -81.06800063002582
        ]
      }
    },
    {
      "type": "Feature",
      "properties": {
        "norad_id": 4507,
        "name": "NNSS 19 (TRANSIT 19)",
        "group": "nnss",
        "lat": -40.91528952044635,
        "lon": 54.536836920817876,
        "alt_km": 977.5929309126641,
        "timestamp": "2025-12-23T11:34:48.432870+00:00",
        "meta_object_name": "NNSS 19 (TRANSIT 19)",
        "meta_object_id": "1970-067A",
        "meta_epoch": "2025-12-23T03:21:58.921056",
        "meta_mean_motion": 13.51317203,
        "meta_eccentricity": 0.0170224,
        "meta_inclination": 90.005,
        "meta_ra_of_asc_node": 234.541,
        "meta_arg_of_pericenter": 262.936,
        "meta_mean_anomaly": 95.2407,
        "meta_ephemeris_type": 0,
        "meta_classification_type": "U",
        "meta_norad_cat_id": 4507,
        "meta_element_set_no": 999,
        "meta_rev_at_epoch": 72362,
        "meta_bstar": 0.00015716,
        "meta_mean_motion_dot": 1.19e-06,
        "meta_mean_motion_ddot": 0,
        "tle_line1": "1 04507U 70067A   25357.14026529  .00000119  00000+0  15716-3 0  9990",
        "tle_line2": "2 04507  90.0050 234.5410 0170224 262.9360  95.2407 13.51317203723628"
      },
      "geometry": {
        "type": "Point",
        "coordinates": [
          54.536836920817876,
          -40.91528952044635
        ]
      }
    },
    {
      "type": "Feature",
      "properties": {
        "norad_id": 6909,
        "name": "NNSS 20 (TRANSIT 20)",
        "group": "nnss",
        "lat": -9.780540672980026,
        "lon": -105.13155757335902,
        "alt_km": 933.1264572809669,
        "timestamp": "2025-12-23T11:34:48.432881+00:00",
        "meta_object_name": "NNSS 20 (TRANSIT 20)",
        "meta_object_id": "1973-081A",
        "meta_epoch": "2025-12-22T23:22:10.447392",
        "meta_mean_motion": 13.71439591,
        "meta_eccentricity": 0.0156275,
        "meta_inclination": 89.8562,
        "meta_ra_of_asc_node": 254.9009,
        "meta_arg_of_pericenter": 47.9946,
        "meta_mean_anomaly": 313.4402,
        "meta_ephemeris_type": 0,
        "meta_classification_type": "U",
        "meta_norad_cat_id": 6909,
        "meta_element_set_no": 999,
        "meta_rev_at_epoch": 80501,
        "meta_bstar": 0.00028592,
        "meta_mean_motion_dot": 2.92e-06,
        "meta_mean_motion_ddot": 0,
        "tle_line1": "1 06909U 73081A   25356.97373203  .00000292  00000+0  28592-3 0  9999",
        "tle_line2": "2 06909  89.8562 254.9009 0156275  47.9946 313.4402 13.71439591805012"
      },
      "geometry": {
        "type": "Point",
        "coordinates": [
          -105.13155757335902,
          -9.780540672980026
        ]
      }
    },
    {
      "type": "Feature",
      "properties": {
        "norad_id": 10457,
        "name": "TRANSAT",
        "group": "nnss",
        "lat": 44.54026588668972,
        "lon": -102.13039722157276,
        "alt_km": 1054.3735840593035,
        "timestamp": "2025-12-23T11:34:48.432891+00:00",
        "meta_object_name": "TRANSAT",
        "meta_object_id": "1977-106A",
        "meta_epoch": "2025-12-23T04:08:12.748992",
        "meta_mean_motion": 13.4894515,
        "meta_eccentricity": 0.0026356,
        "meta_inclination": 89.6477,
        "meta_ra_of_asc_node": 78.2275,
        "meta_arg_of_pericenter": 159.8262,
        "meta_mean_anomaly": 270.4917,
        "meta_ephemeris_type": 0,
        "meta_classification_type": "U",
        "meta_norad_cat_id": 10457,
        "meta_element_set_no": 999,
        "meta_rev_at_epoch": 36884,
        "meta_bstar": 0.00013511,
        "meta_mean_motion_dot": 9.5e-07,
        "meta_mean_motion_ddot": 0,
        "tle_line1": "1 10457U 77106A   25357.17236978  .00000095  00000+0  13511-3 0  9990",
        "tle_line2": "2 10457  89.6477  78.2275 0026356 159.8262 270.4917 13.48945150368845"
      },
      "geometry": {
        "type": "Point",
        "coordinates": [
          -102.13039722157276,
          44.54026588668972
        ]
      }
    },
    {
      "type": "Feature",
      "properties": {
        "norad_id": 12458,
        "name": "NOVA 1",
        "group": "nnss",
        "lat": 53.99576189248387,
        "lon": -88.96967306577518,
        "alt_km": 1159.2697904057268,
        "timestamp": "2025-12-23T11:34:48.432901+00:00",
        "meta_object_name": "NOVA 1",
        "meta_object_id": "1981-044A",
        "meta_epoch": "2025-12-22T13:13:40.325952",
        "meta_mean_motion": 13.2327954,
        "meta_eccentricity": 0.00158143,
        "meta_inclination": 89.8526,
        "meta_ra_of_asc_node": 91.2465,
        "meta_arg_of_pericenter": 79.8958,
        "meta_mean_anomaly": 291.7383,
        "meta_ephemeris_type": 0,
        "meta_classification_type": "U",
        "meta_norad_cat_id": 12458,
        "meta_element_set_no": 999,
        "meta_rev_at_epoch": 15316,
        "meta_bstar": 0.0001659475,
        "meta_mean_motion_dot": 7.9e-07,
        "meta_mean_motion_ddot": 0,
        "tle_line1": "1 12458U 81044A   25356.55116118  .00000079  00000+0  16595-3 0  9990",
        "tle_line2": "2 12458  89.8526  91.2465 0015814  79.8958 291.7383 13.23279540153167"
      },
      "geometry": {
        "type": "Point",
        "coordinates": [
          -88.96967306577518,
          53.99576189248387
        ]
      }
    }
  ]
}